{"fetched_at":"2026-03-30T13:17:50Z","count":15418,"tles":[{"name":"STARLINK-4187","line1":"1 52850U 22062W   26087.89448920  .00001572  00000+0  11682-3 0  9994","line2":"2 52850  53.2172 308.2670 0001361  92.7698 267.3450 15.08840393208682","category":"Starlink"}]}